#aV2009  4 24  0  0   .00000000      96 DD+AD WGS84 FIT  NGA
## 1528 432000.00000000   900.00000000 54945  .0000000000000
+   31     2  3  4  5  6  7  8  9 10 11 12 13 14 15 16 17 18
+         19 20 21 22 23 24 25 26 27 28 29 30 31 32  0  0  0
+          0  0  0  0  0  0  0  0  0  0  0  0  0  0  0  0  0
+          0  0  0  0  0  0  0  0  0  0  0  0  0  0  0  0  0
+          0  0  0  0  0  0  0  0  0  0  0  0  0  0  0  0  0
++         0  0  0  0  0  0  0  0  0  0  0  0  0  0  0  0  0
++         0  0  0  0  0  0  0  0  0  0  0  0  0  0  0  0  0
++         0  0  0  0  0  0  0  0  0  0  0  0  0  0  0  0  0
++         0  0  0  0  0  0  0  0  0  0  0  0  0  0  0  0  0
++         0  0  0  0  0  0  0  0  0  0  0  0  0  0  0  0  0
%c cc cc ccc ccc cccc cccc cccc cccc ccccc ccccc ccccc ccccc
%c cc cc ccc ccc cccc cccc cccc cccc ccccc ccccc ccccc ccccc
%f  0.0000000  0.000000000  0.00000000000  0.000000000000000
%f  0.0000000  0.000000000  0.00000000000  0.000000000000000
%i    0    0    0    0      0      0      0      0         0
%i    0    0    0    0      0      0      0      0         0
/*      NGA, ST. LOUIS,MO.                                  
/*   EPHEMERIS COMPUTED FROM  3 DAYS OF DATA                
/* CCCCCCCCCCCCCCCCCCCCCCCCCCCCCCCCCCCCCCCCCCCCCCCCCCCCCCCCC
/* CCCCCCCCCCCCCCCCCCCCCCCCCCCCCCCCCCCCCCCCCCCCCCCCCCCCCCCCC
*  2009  4 24 12 45   .00000000                                                 
P  2  15992.983449 -13120.213461  16323.094646    153.590548                    
V  2  21266.332471    880.024080 -20410.001318       .001495                    
P  3  -9184.734002  24707.123565    277.573211    383.905806                    
V  3  -3732.916438  -2115.681698  31191.553560       .051583                    
P  4  25240.496311  -6071.819281   6333.005217    -64.308834                    
V  4   8309.831822   2531.359481 -29700.536899      -.150928                    
P  5 -14189.718987 -22197.440449  -4155.864201    -47.009148                    
V  5   5505.145177   1840.642464 -30747.481281      -.157885                    
P  6 -13765.089155  22185.647940   4922.089377     94.572551                    
V  6   -851.853217  -6983.875786  30333.666884       .166155                    
P  7  21974.060520   7561.353943  12946.110612     19.910238                    
V  7 -16255.701900   3058.603101  25653.085936      -.005600                    
P  8  26832.794849    156.717067    363.111110   -199.945982                    
V  8   -511.927052   1516.447752  32017.670420      -.017610                    
P  9  -5867.047207 -14475.241604 -22146.895526     52.403727                    
V  9  26365.996487  -2837.791363  -5190.723240       .019329                    
P 10   3297.914366 -18751.011858  18211.524228    -14.904536                    
V 10  14092.943134  19004.776057  17194.816609      -.007032                    
P 11   8834.755005  14750.723235 -20488.290841      -.027639                    
V 11 -24714.762415   7623.510715  -4863.514311      -.014486                    
P 12 -11570.813966 -23498.423567  -4702.494503   -290.106809                    
V 12   5405.312945   3674.232772 -31052.772741       .049335                    
P 13  11059.736603   9524.527079  22063.088286    295.356293                    
V 13 -14136.111138  24438.453320  -3437.564929       .010462                    
P 14 -17862.944469   8976.964422 -17308.796291   -120.966426                    
V 14   9464.106595 -20117.655109 -20172.024483       .057990                    
P 15   5581.777188 -24668.818917  -7982.578199   -284.653299                    
V 15   6934.903097  -7975.975564  29472.427014      -.041349                    
P 16  -7313.532384  15024.010779  20650.909807     56.767823                    
V 16 -14802.495035 -21543.971409  10696.358441      -.031995                    
P 17  17943.148036  -7039.811823 -18123.637858     55.737903                    
V 17  -9168.843225  21403.029537 -17514.010054       .017360                    
P 18 -19203.590781 -13229.700982 -12829.723202    -62.779077                    
V 18  -6599.523845 -15380.670682  24934.763357       .033576                    
P 19  -5414.299170  23641.192530 -10466.531668     27.511942                    
V 19  -9242.827653  10192.556934  27873.275748      -.009930                    
P 20  13293.686353  22838.235108  -3020.914560     84.464028                    
V 20  -4838.436162  -1114.074102 -31000.811830      -.010558                    
P 21 -24501.105128  -5967.540616   9535.029668     17.569632                    
V 21  11477.081175  -3220.242682  27587.935286      -.020106                    
P 22 -17910.405585  -2161.883893 -19360.550042    200.995773                    
V 22 -11814.420382 -22042.984701  13215.950153      -.005455                    
P 23   3840.004843  19279.696937  17675.434599    389.630860                    
V 23 -11653.501424  19465.507346 -18917.100159       .002741                    
P 24 -12875.266494 -13397.524044  19014.042011    183.718775                    
V 24  23962.482174  -1903.413536  15246.139978       .029287                    
P 25  16041.012066  10431.616105  18682.475800    376.852755                    
V 25 -22558.834450   4963.457805  17107.503411       .207255                    
P 26   1753.454310 -22275.573297 -14494.355004     58.250405                    
V 26  10037.045880 -14556.664519  25023.289624       .016764                    
P 27   8140.600730 -14649.272240 -19969.721974     43.491248                    
V 27  26710.992947  -2222.626796  12076.315963       .032556                    
P 28  18208.137593   5329.370790 -18286.987757    -24.230540                    
V 28  11514.902968  21084.721663  16899.915982      -.003868                    
P 29 -10987.301799 -11369.619605  21454.138403     13.115424                    
V 29  13041.376368 -23631.790008  -5836.311404       .040520                    
P 30 -18085.597869 -18750.455832   5033.011246    141.488194                    
V 30  -1585.537811  -7307.756913 -30621.606400       .027057                    
P 31 -23961.456329   7666.816213   8944.681811    -58.558133                    
V 31 -11120.587153  -1358.129345 -29174.182720      -.010169                    
P 32   5812.127770  24136.711470  -9374.724515    270.476029                    
V 32  -8020.783008  -9736.631781 -28576.318242      -.049770                    
EOF
